[{"OBJECT_NAME":"ZIYUAN 3-02 (ZY 3-02)","OBJECT_ID":"2016-033A","EPOCH":"2026-03-09T22:29:55.337856","MEAN_MOTION":15.2155989,"ECCENTRICITY":0.00109987,"INCLINATION":97.3895,"RA_OF_ASC_NODE":146.5883,"ARG_OF_PERICENTER":297.9383,"MEAN_ANOMALY":62.0739,"EPHEMERIS_TYPE":0,"CLASSIFICATION_TYPE":"U","NORAD_CAT_ID":41556,"ELEMENT_SET_NO":999,"REV_AT_EPOCH":54289,"BSTAR":0.00035842327,"MEAN_MOTION_DOT":8.025e-5,"MEAN_MOTION_DDOT":0},{"OBJECT_NAME":"COSMOS 252 DEB","OBJECT_ID":"1968-097D","EPOCH":"2026-03-09T22:40:32.342592","MEAN_MOTION":13.80993653,"ECCENTRICITY":0.06218464,"INCLINATION":62.2838,"RA_OF_ASC_NODE":22.8932,"ARG_OF_PERICENTER":123.8434,"MEAN_ANOMALY":242.3394,"EPHEMERIS_TYPE":0,"CLASSIFICATION_TYPE":"U","NORAD_CAT_ID":3551,"ELEMENT_SET_NO":999,"REV_AT_EPOCH":79484,"BSTAR":0.00067344756,"MEAN_MOTION_DOT":3.094e-5,"MEAN_MOTION_DDOT":0}]
